0 COSMOS 2251 DEB
1 34464U 93036TH  13281.58422516  .00003159  00000-0  71940-3 0  8991
2 34464 074.0276 052.8713 0063966 243.3098 245.4106 14.55062898245533
0 COSMOS 2251 DEB
1 34464U 93036TH  13283.71263844  .00003936  00000-0  89403-3 0  9004
2 34464 074.0274 048.8392 0063961 238.9120 234.4398 14.55086640245846
0 COSMOS 2251 DEB
1 34464U 93036TH  13285.78279340  .00003890  00000-0  88351-3 0  9012
2 34464 074.0276 044.9179 0063934 234.5317 278.5361 14.55097433246143
0 COSMOS 2251 DEB
1 34464U 93036TH  13288.10209572  .00006837  00000-0  15461-2 0  9027
2 34464 074.0285 040.5239 0063882 229.7383 187.7608 14.55117609246483
0 COSMOS 2251 DEB
1 34464U 93036TH  13290.45268845  .00005828  00000-0  13185-2 0  9037
2 34464 074.0291 036.0708 0063780 224.8105 261.1594 14.55141011246829
0 COSMOS 2251 DEB
1 34464U 93036TH  13292.72732810  .00005156  00000-0  11671-2 0  9040
2 34464 074.0291 031.7618 0063698 220.1031 296.8045 14.55162088247156
0 COSMOS 2251 DEB
1 34464U 93036TH  13295.04539773  .00005529  00000-0  12505-2 0  9053
2 34464 074.0287 027.3703 0063602 215.2936 200.1430 14.55181499247491
